[{"OBJECT_NAME":"IRIDIUM 33","OBJECT_ID":"1997-051C","EPOCH":"2026-04-26T18:23:35.525760","MEAN_MOTION":14.35127339,"ECCENTRICITY":0.0009458,"INCLINATION":86.3916,"RA_OF_ASC_NODE":11.5378,"ARG_OF_PERICENTER":124.736,"MEAN_ANOMALY":235.4728,"EPHEMERIS_TYPE":0,"CLASSIFICATION_TYPE":"U","NORAD_CAT_ID":24946,"ELEMENT_SET_NO":999,"REV_AT_EPOCH":49771,"BSTAR":8.7977e-5,"MEAN_MOTION_DOT":2.71e-6,"MEAN_MOTION_DDOT":0},{"OBJECT_NAME":"IRIDIUM 33 DEB","OBJECT_ID":"1997-051L","EPOCH":"2026-04-26T18:11:19.347648","MEAN_MOTION":14.43574471,"ECCENTRICITY":0.0013306,"INCLINATION":86.405,"RA_OF_ASC_NODE":3.3702,"ARG_OF_PERICENTER":69.7974,"MEAN_ANOMALY":290.4656,"EPHEMERIS_TYPE":0,"CLASSIFICATION_TYPE":"U","NORAD_CAT_ID":33773,"ELEMENT_SET_NO":999,"REV_AT_EPOCH":90295,"BSTAR":0.00024412,"MEAN_MOTION_DOT":8.47e-6,"MEAN_MOTION_DDOT":0},{"OBJECT_NAME":"IRIDIUM 33 DEB","OBJECT_ID":"1997-051N","EPOCH":"2026-04-26T17:00:05.181984","MEAN_MOTION":14.41894588,"ECCENTRICITY":0.0015095,"INCLINATION":86.3661,"RA_OF_ASC_NODE":351.9318,"ARG_OF_PERICENTER":77.6264,"MEAN_ANOMALY":344.9485,"EPHEMERIS_TYPE":0,"CLASSIFICATION_TYPE":"U","NORAD_CAT_ID":33775,"ELEMENT_SET_NO":999,"REV_AT_EPOCH":90085,"BSTAR":0.00040777,"MEAN_MOTION_DOT":1.355e-5,"MEAN_MOTION_DDOT":0},{"OBJECT_NAME":"IRIDIUM 33 DEB","OBJECT_ID":"1997-051P","EPOCH":"2026-04-26T18:21:20.293344","MEAN_MOTION":14.3848071,"ECCENTRICITY":0.0016417,"INCLINATION":86.4081,"RA_OF_ASC_NODE":24.0432,"ARG_OF_PERICENTER":110.5372,"MEAN_ANOMALY":303.302,"EPHEMERIS_TYPE":0,"CLASSIFICATION_TYPE":"U","NORAD_CAT_ID":33776,"ELEMENT_SET_NO":999,"REV_AT_EPOCH":90023,"BSTAR":0.0002219,"MEAN_MOTION_DOT":6.98e-6,"MEAN_MOTION_DDOT":0},{"OBJECT_NAME":"IRIDIUM 33 DEB","OBJECT_ID":"1997-051Q","EPOCH":"2026-04-26T07:34:47.386272","MEAN_MOTION":14.56554593,"ECCENTRICITY":0.00076507,"INCLINATION":86.3787,"RA_OF_ASC_NODE":336.6366,"ARG_OF_PERICENTER":148.7848,"MEAN_ANOMALY":211.3816,"EPHEMERIS_TYPE":0,"CLASSIFICATION_TYPE":"U","NORAD_CAT_ID":33777,"ELEMENT_SET_NO":999,"REV_AT_EPOCH":90492,"BSTAR":0.00055279133,"MEAN_MOTION_DOT":2.482e-5,"MEAN_MOTION_DDOT":0},{"OBJECT_NAME":"IRIDIUM 33 DEB","OBJECT_ID":"1997-051T","EPOCH":"2026-04-26T20:15:28.519776","MEAN_MOTION":14.42581165,"ECCENTRICITY":0.0013507,"INCLINATION":86.3414,"RA_OF_ASC_NODE":332.0934,"ARG_OF_PERICENTER":84.9598,"MEAN_ANOMALY":285.9415,"EPHEMERIS_TYPE":0,"CLASSIFICATION_TYPE":"U","NORAD_CAT_ID":33850,"ELEMENT_SET_NO":999,"REV_AT_EPOCH":90100,"BSTAR":0.00021538,"MEAN_MOTION_DOT":7.35e-6,"MEAN_MOTION_DDOT":0},{"OBJECT_NAME":"IRIDIUM 33 DEB","OBJECT_ID":"1997-051W","EPOCH":"2026-04-26T11:40:43.328640","MEAN_MOTION":13.99743648,"ECCENTRICITY":0.0208059,"INCLINATION":85.9957,"RA_OF_ASC_NODE":290.6959,"ARG_OF_PERICENTER":182.5212,"MEAN_ANOMALY":233.8077,"EPHEMERIS_TYPE":0,"CLASSIFICATION_TYPE":"U","NORAD_CAT_ID":33853,"ELEMENT_SET_NO":999,"REV_AT_EPOCH":87230,"BSTAR":0.0010916914,"MEAN_MOTION_DOT":1.944e-5,"MEAN_MOTION_DDOT":0},{"OBJECT_NAME":"IRIDIUM 33 DEB","OBJECT_ID":"1997-051AD","EPOCH":"2026-04-26T13:39:50.621760","MEAN_MOTION":14.69656843,"ECCENTRICITY":0.0006562,"INCLINATION":86.3823,"RA_OF_ASC_NODE":327.4584,"ARG_OF_PERICENTER":228.3234,"MEAN_ANOMALY":195.3304,"EPHEMERIS_TYPE":0,"CLASSIFICATION_TYPE":"U","NORAD_CAT_ID":33860,"ELEMENT_SET_NO":999,"REV_AT_EPOCH":90701,"BSTAR":0.0010289738,"MEAN_MOTION_DOT":6.145e-5,"MEAN_MOTION_DDOT":0},{"OBJECT_NAME":"IRIDIUM 33 DEB","OBJECT_ID":"1997-051AF","EPOCH":"2026-04-26T15:51:22.675104","MEAN_MOTION":14.72828354,"ECCENTRICITY":0.0047923,"INCLINATION":86.4104,"RA_OF_ASC_NODE":337.8887,"ARG_OF_PERICENTER":323.5453,"MEAN_ANOMALY":98.5051,"EPHEMERIS_TYPE":0,"CLASSIFICATION_TYPE":"U","NORAD_CAT_ID":33862,"ELEMENT_SET_NO":999,"REV_AT_EPOCH":90807,"BSTAR":0.0013293,"MEAN_MOTION_DOT":8.684e-5,"MEAN_MOTION_DDOT":0},{"OBJECT_NAME":"IRIDIUM 33 DEB","OBJECT_ID":"1997-051AK","EPOCH":"2026-04-26T17:52:12.785088","MEAN_MOTION":14.26018256,"ECCENTRICITY":0.0115968,"INCLINATION":86.3025,"RA_OF_ASC_NODE":35.8685,"ARG_OF_PERICENTER":86.6844,"MEAN_ANOMALY":303.8865,"EPHEMERIS_TYPE":0,"CLASSIFICATION_TYPE":"U","NORAD_CAT_ID":33866,"ELEMENT_SET_NO":999,"REV_AT_EPOCH":88734,"BSTAR":0.001697,"MEAN_MOTION_DOT":4.366e-5,"MEAN_MOTION_DDOT":0},{"OBJECT_NAME":"IRIDIUM 33 DEB","OBJECT_ID":"1997-051AP","EPOCH":"2026-04-26T17:52:55.782048","MEAN_MOTION":14.4662474,"ECCENTRICITY":0.0022872,"INCLINATION":86.3783,"RA_OF_ASC_NODE":0.3677,"ARG_OF_PERICENTER":92.8519,"MEAN_ANOMALY":335.2485,"EPHEMERIS_TYPE":0,"CLASSIFICATION_TYPE":"U","NORAD_CAT_ID":33870,"ELEMENT_SET_NO":999,"REV_AT_EPOCH":90088,"BSTAR":0.00056241,"MEAN_MOTION_DOT":2.055e-5,"MEAN_MOTION_DDOT":0},{"OBJECT_NAME":"IRIDIUM 33 DEB","OBJECT_ID":"1997-051BA","EPOCH":"2026-04-26T19:20:31.288416","MEAN_MOTION":14.60551915,"ECCENTRICITY":0.0060934,"INCLINATION":86.3836,"RA_OF_ASC_NODE":47.8265,"ARG_OF_PERICENTER":74.3461,"MEAN_ANOMALY":338.7214,"EPHEMERIS_TYPE":0,"CLASSIFICATION_TYPE":"U","NORAD_CAT_ID":33881,"ELEMENT_SET_NO":999,"REV_AT_EPOCH":89469,"BSTAR":0.0042951,"MEAN_MOTION_DOT":0.00021475,"MEAN_MOTION_DDOT":0},{"OBJECT_NAME":"IRIDIUM 33 DEB","OBJECT_ID":"1997-051BD","EPOCH":"2026-04-26T18:39:02.798208","MEAN_MOTION":14.8162198,"ECCENTRICITY":0.0010506,"INCLINATION":86.3654,"RA_OF_ASC_NODE":308.6661,"ARG_OF_PERICENTER":190.8942,"MEAN_ANOMALY":183.19,"EPHEMERIS_TYPE":0,"CLASSIFICATION_TYPE":"U","NORAD_CAT_ID":33884,"ELEMENT_SET_NO":999,"REV_AT_EPOCH":90844,"BSTAR":0.0021307,"MEAN_MOTION_DOT":0.00016811,"MEAN_MOTION_DDOT":0},{"OBJECT_NAME":"IRIDIUM 33 DEB","OBJECT_ID":"1997-051BF","EPOCH":"2026-04-26T18:28:12.917280","MEAN_MOTION":14.36219634,"ECCENTRICITY":0.0014558,"INCLINATION":86.3876,"RA_OF_ASC_NODE":10.3865,"ARG_OF_PERICENTER":156.3789,"MEAN_ANOMALY":267.4053,"EPHEMERIS_TYPE":0,"CLASSIFICATION_TYPE":"U","NORAD_CAT_ID":33886,"ELEMENT_SET_NO":999,"REV_AT_EPOCH":89990,"BSTAR":0.00015095,"MEAN_MOTION_DOT":4.61e-6,"MEAN_MOTION_DDOT":0},{"OBJECT_NAME":"IRIDIUM 33 DEB","OBJECT_ID":"1997-051BG","EPOCH":"2026-04-26T12:46:05.767680","MEAN_MOTION":14.37359784,"ECCENTRICITY":0.00072548,"INCLINATION":86.3002,"RA_OF_ASC_NODE":305.3233,"ARG_OF_PERICENTER":143.7578,"MEAN_ANOMALY":269.8962,"EPHEMERIS_TYPE":0,"CLASSIFICATION_TYPE":"U","NORAD_CAT_ID":33887,"ELEMENT_SET_NO":999,"REV_AT_EPOCH":90101,"BSTAR":0.00013221382,"MEAN_MOTION_DOT":4.14e-6,"MEAN_MOTION_DDOT":0},{"OBJECT_NAME":"IRIDIUM 33 DEB","OBJECT_ID":"1997-051BN","EPOCH":"2026-04-26T10:08:54.547584","MEAN_MOTION":14.56813636,"ECCENTRICITY":0.00175665,"INCLINATION":86.3883,"RA_OF_ASC_NODE":355.2696,"ARG_OF_PERICENTER":13.5802,"MEAN_ANOMALY":165.7014,"EPHEMERIS_TYPE":0,"CLASSIFICATION_TYPE":"U","NORAD_CAT_ID":33953,"ELEMENT_SET_NO":999,"REV_AT_EPOCH":90263,"BSTAR":0.00087673076,"MEAN_MOTION_DOT":3.953e-5,"MEAN_MOTION_DDOT":0}]
