IRIDIUM 33              
1 24946U 97051C   26116.76638340  .00000271  00000+0  87977-4 0  9991
2 24946  86.3916  11.5378 0009458 124.7360 235.4728 14.35127339497711
IRIDIUM 33 DEB          
1 33773U 97051L   26116.75786282  .00000847  00000+0  24412-3 0  9990
2 33773  86.4050   3.3702 0013306  69.7974 290.4656 14.43574471902955
IRIDIUM 33 DEB          
1 33775U 97051N   26116.70839331  .00001355  00000+0  40777-3 0  9998
2 33775  86.3661 351.9318 0015095  77.6264 344.9485 14.41894588900850
IRIDIUM 33 DEB          
1 33776U 97051P   26116.76481821  .00000698  00000+0  22190-3 0  9990
2 33776  86.4081  24.0432 0016417 110.5372 303.3020 14.38480710900239
IRIDIUM 33 DEB          
1 33777U 97051Q   26116.31582623  .00002482  00000+0  55279-3 0  9991
2 33777  86.3787 336.6366 0007650 148.7848 211.3816 14.56554593904922
IRIDIUM 33 DEB          
1 33850U 97051T   26116.84408009  .00000735  00000+0  21538-3 0  9996
2 33850  86.3414 332.0934 0013507  84.9598 285.9415 14.42581165901001
IRIDIUM 33 DEB          
1 33853U 97051W   26116.48661260  .00001944  00000+0  10917-2 0  9990
2 33853  85.9957 290.6959 0208059 182.5212 233.8077 13.99743648872306
IRIDIUM 33 DEB          
1 33860U 97051AD  26116.56933590  .00006145  00000+0  10290-2 0  9997
2 33860  86.3823 327.4584 0006562 228.3234 195.3304 14.69656843907012
IRIDIUM 33 DEB          
1 33862U 97051AF  26116.66067911  .00008684  00000+0  13293-2 0  9991
2 33862  86.4104 337.8887 0047923 323.5453  98.5051 14.72828354908077
IRIDIUM 33 DEB          
1 33866U 97051AK  26116.74459242  .00004366  00000+0  16970-2 0  9994
2 33866  86.3025  35.8685 0115968  86.6844 303.8865 14.26018256887341
IRIDIUM 33 DEB          
1 33870U 97051AP  26116.74509007  .00002055  00000+0  56241-3 0  9993
2 33870  86.3783   0.3677 0022872  92.8519 335.2485 14.46624740900889
IRIDIUM 33 DEB          
1 33881U 97051BA  26116.80591769  .00021475  00000+0  42951-2 0  9997
2 33881  86.3836  47.8265 0060934  74.3461 338.7214 14.60551915894699
IRIDIUM 33 DEB          
1 33884U 97051BD  26116.77711572  .00016811  00000+0  21307-2 0  9992
2 33884  86.3654 308.6661 0010506 190.8942 183.1900 14.81621980908442
IRIDIUM 33 DEB          
1 33886U 97051BF  26116.76959395  .00000461  00000+0  15095-3 0  9992
2 33886  86.3876  10.3865 0014558 156.3789 267.4053 14.36219634899904
IRIDIUM 33 DEB          
1 33887U 97051BG  26116.53201120  .00000414  00000+0  13221-3 0  9991
2 33887  86.3002 305.3233 0007254 143.7578 269.8962 14.37359784901016
IRIDIUM 33 DEB          
1 33953U 97051BN  26116.42285356  .00003953  00000+0  87673-3 0  9999
2 33953  86.3883 355.2696 0017566  13.5802 165.7014 14.56813636902638
